[{"OBJECT_NAME":"FFLY01","OBJECT_ID":"2025-188F","EPOCH":"2026-03-09T23:07:21.655776","MEAN_MOTION":14.92848579,"ECCENTRICITY":0.00112982,"INCLINATION":97.7442,"RA_OF_ASC_NODE":145.8408,"ARG_OF_PERICENTER":138.2853,"MEAN_ANOMALY":221.923,"EPHEMERIS_TYPE":0,"CLASSIFICATION_TYPE":"U","NORAD_CAT_ID":65320,"ELEMENT_SET_NO":999,"REV_AT_EPOCH":2910,"BSTAR":0.000290729,"MEAN_MOTION_DOT":2.958e-5,"MEAN_MOTION_DDOT":0},{"OBJECT_NAME":"NOAA 16 DEB","OBJECT_ID":"2000-055CW","EPOCH":"2026-03-07T07:19:51.843360","MEAN_MOTION":14.8431285,"ECCENTRICITY":0.0024489,"INCLINATION":99.0144,"RA_OF_ASC_NODE":13.4315,"ARG_OF_PERICENTER":245.2612,"MEAN_ANOMALY":114.605,"EPHEMERIS_TYPE":0,"CLASSIFICATION_TYPE":"U","NORAD_CAT_ID":41163,"ELEMENT_SET_NO":999,"REV_AT_EPOCH":53806,"BSTAR":0.0082493,"MEAN_MOTION_DOT":0.00070186,"MEAN_MOTION_DDOT":0}]
